[{"OBJECT_NAME":"ONEWEB-0514","OBJECT_ID":"2022-138V","EPOCH":"2025-10-22T04:24:21.038112","MEAN_MOTION":13.19724507,"ECCENTRICITY":0.0001861,"INCLINATION":87.9255,"RA_OF_ASC_NODE":352.3114,"ARG_OF_PERICENTER":95.0886,"MEAN_ANOMALY":265.046,"EPHEMERIS_TYPE":0,"CLASSIFICATION_TYPE":"U","NORAD_CAT_ID":54132,"ELEMENT_SET_NO":999,"REV_AT_EPOCH":14543,"BSTAR":0.00014546,"MEAN_MOTION_DOT":7.1e-7,"MEAN_MOTION_DDOT":0},{"OBJECT_NAME":"ONEWEB-0515","OBJECT_ID":"2022-138W","EPOCH":"2025-10-22T04:00:10.607616","MEAN_MOTION":13.20771206,"ECCENTRICITY":0.000268,"INCLINATION":87.921,"RA_OF_ASC_NODE":321.8898,"ARG_OF_PERICENTER":84.6217,"MEAN_ANOMALY":275.5222,"EPHEMERIS_TYPE":0,"CLASSIFICATION_TYPE":"U","NORAD_CAT_ID":54133,"ELEMENT_SET_NO":999,"REV_AT_EPOCH":14788,"BSTAR":0.00015007,"MEAN_MOTION_DOT":7.4e-7,"MEAN_MOTION_DDOT":0},{"OBJECT_NAME":"ONEWEB-0516","OBJECT_ID":"2022-138X","EPOCH":"2025-10-22T03:47:57.468192","MEAN_MOTION":13.1972532,"ECCENTRICITY":0.0001928,"INCLINATION":87.9243,"RA_OF_ASC_NODE":352.3413,"ARG_OF_PERICENTER":100.9039,"MEAN_ANOMALY":259.2311,"EPHEMERIS_TYPE":0,"CLASSIFICATION_TYPE":"U","NORAD_CAT_ID":54134,"ELEMENT_SET_NO":999,"REV_AT_EPOCH":14543,"BSTAR":3.974e-5,"MEAN_MOTION_DOT":2.9e-7,"MEAN_MOTION_DDOT":0},{"OBJECT_NAME":"ONEWEB-0517","OBJECT_ID":"2022-138Y","EPOCH":"2025-10-22T03:18:22.862304","MEAN_MOTION":13.1972394,"ECCENTRICITY":0.0001607,"INCLINATION":87.9263,"RA_OF_ASC_NODE":352.3164,"ARG_OF_PERICENTER":95.0405,"MEAN_ANOMALY":265.0911,"EPHEMERIS_TYPE":0,"CLASSIFICATION_TYPE":"U","NORAD_CAT_ID":54135,"ELEMENT_SET_NO":999,"REV_AT_EPOCH":14543,"BSTAR":0.00026375,"MEAN_MOTION_DOT":1.19e-6,"MEAN_MOTION_DDOT":0},{"OBJECT_NAME":"ONEWEB-0518","OBJECT_ID":"2022-138Z","EPOCH":"2025-10-22T03:45:40.924224","MEAN_MOTION":13.19724824,"ECCENTRICITY":0.0001846,"INCLINATION":87.9245,"RA_OF_ASC_NODE":352.3436,"ARG_OF_PERICENTER":104.0355,"MEAN_ANOMALY":256.0983,"EPHEMERIS_TYPE":0,"CLASSIFICATION_TYPE":"U","NORAD_CAT_ID":54136,"ELEMENT_SET_NO":999,"REV_AT_EPOCH":14543,"BSTAR":0.00013618,"MEAN_MOTION_DOT":6.7e-7,"MEAN_MOTION_DDOT":0},{"OBJECT_NAME":"ONEWEB-0519","OBJECT_ID":"2022-138AA","EPOCH":"2025-10-22T04:22:04.327392","MEAN_MOTION":13.19724291,"ECCENTRICITY":0.0001644,"INCLINATION":87.9262,"RA_OF_ASC_NODE":352.2993,"ARG_OF_PERICENTER":97.4229,"MEAN_ANOMALY":262.7091,"EPHEMERIS_TYPE":0,"CLASSIFICATION_TYPE":"U","NORAD_CAT_ID":54137,"ELEMENT_SET_NO":999,"REV_AT_EPOCH":14544,"BSTAR":0.00018898,"MEAN_MOTION_DOT":8.9e-7,"MEAN_MOTION_DDOT":0},{"OBJECT_NAME":"ONEWEB-0520","OBJECT_ID":"2022-138AB","EPOCH":"2025-10-22T03:22:56.294112","MEAN_MOTION":13.19724323,"ECCENTRICITY":0.0001911,"INCLINATION":87.9263,"RA_OF_ASC_NODE":352.3114,"ARG_OF_PERICENTER":108.4686,"MEAN_ANOMALY":251.6655,"EPHEMERIS_TYPE":0,"CLASSIFICATION_TYPE":"U","NORAD_CAT_ID":54138,"ELEMENT_SET_NO":999,"REV_AT_EPOCH":14542,"BSTAR":0.00011605,"MEAN_MOTION_DOT":5.9e-7,"MEAN_MOTION_DDOT":0},{"OBJECT_NAME":"ONEWEB-0521","OBJECT_ID":"2022-138AC","EPOCH":"2025-10-22T04:10:42.625344","MEAN_MOTION":13.19725295,"ECCENTRICITY":0.0001665,"INCLINATION":87.926,"RA_OF_ASC_NODE":352.2903,"ARG_OF_PERICENTER":93.3666,"MEAN_ANOMALY":266.7657,"EPHEMERIS_TYPE":0,"CLASSIFICATION_TYPE":"U","NORAD_CAT_ID":54139,"ELEMENT_SET_NO":999,"REV_AT_EPOCH":14537,"BSTAR":0.00013776,"MEAN_MOTION_DOT":6.8e-7,"MEAN_MOTION_DDOT":0},{"OBJECT_NAME":"ONEWEB-0522","OBJECT_ID":"2022-138AD","EPOCH":"2025-10-22T03:41:08.836800","MEAN_MOTION":13.19726345,"ECCENTRICITY":0.0001851,"INCLINATION":87.926,"RA_OF_ASC_NODE":352.2955,"ARG_OF_PERICENTER":104.8705,"MEAN_ANOMALY":255.2633,"EPHEMERIS_TYPE":0,"CLASSIFICATION_TYPE":"U","NORAD_CAT_ID":54140,"ELEMENT_SET_NO":999,"REV_AT_EPOCH":14541,"BSTAR":0.00012107,"MEAN_MOTION_DOT":6.1e-7,"MEAN_MOTION_DDOT":0},{"OBJECT_NAME":"ONEWEB-0523","OBJECT_ID":"2022-138AE","EPOCH":"2025-10-22T03:41:59.061120","MEAN_MOTION":13.20769662,"ECCENTRICITY":0.0002231,"INCLINATION":87.9201,"RA_OF_ASC_NODE":321.9152,"ARG_OF_PERICENTER":73.2796,"MEAN_ANOMALY":286.8582,"EPHEMERIS_TYPE":0,"CLASSIFICATION_TYPE":"U","NORAD_CAT_ID":54141,"ELEMENT_SET_NO":999,"REV_AT_EPOCH":14788,"BSTAR":-1.8422e-5,"MEAN_MOTION_DOT":5.0e-8,"MEAN_MOTION_DDOT":0},{"OBJECT_NAME":"ONEWEB-0524","OBJECT_ID":"2022-138AF","EPOCH":"2025-10-22T01:36:58.620096","MEAN_MOTION":13.20775866,"ECCENTRICITY":0.0002851,"INCLINATION":87.9202,"RA_OF_ASC_NODE":321.934,"ARG_OF_PERICENTER":90.5829,"MEAN_ANOMALY":269.5631,"EPHEMERIS_TYPE":0,"CLASSIFICATION_TYPE":"U","NORAD_CAT_ID":54142,"ELEMENT_SET_NO":999,"REV_AT_EPOCH":14787,"BSTAR":-0.0021729,"MEAN_MOTION_DOT":-8.7e-6,"MEAN_MOTION_DDOT":0},{"OBJECT_NAME":"ONEWEB-0525","OBJECT_ID":"2022-138AG","EPOCH":"2025-10-22T04:08:25.889568","MEAN_MOTION":13.19725356,"ECCENTRICITY":0.0001866,"INCLINATION":87.9262,"RA_OF_ASC_NODE":352.3139,"ARG_OF_PERICENTER":108.9642,"MEAN_ANOMALY":251.1693,"EPHEMERIS_TYPE":0,"CLASSIFICATION_TYPE":"U","NORAD_CAT_ID":54143,"ELEMENT_SET_NO":999,"REV_AT_EPOCH":14543,"BSTAR":0.00029894,"MEAN_MOTION_DOT":1.33e-6,"MEAN_MOTION_DDOT":0},{"OBJECT_NAME":"ONEWEB-0526","OBJECT_ID":"2022-138AH","EPOCH":"2025-10-22T04:56:11.890752","MEAN_MOTION":13.19724365,"ECCENTRICITY":0.0001926,"INCLINATION":87.9261,"RA_OF_ASC_NODE":352.2936,"ARG_OF_PERICENTER":101.4916,"MEAN_ANOMALY":258.6433,"EPHEMERIS_TYPE":0,"CLASSIFICATION_TYPE":"U","NORAD_CAT_ID":54144,"ELEMENT_SET_NO":999,"REV_AT_EPOCH":14541,"BSTAR":0.00025333,"MEAN_MOTION_DOT":1.14e-6,"MEAN_MOTION_DDOT":0},{"OBJECT_NAME":"ONEWEB-0529","OBJECT_ID":"2022-138AJ","EPOCH":"2025-10-22T05:00:44.498304","MEAN_MOTION":13.19724192,"ECCENTRICITY":0.0001936,"INCLINATION":87.9246,"RA_OF_ASC_NODE":352.3281,"ARG_OF_PERICENTER":106.1839,"MEAN_ANOMALY":253.9507,"EPHEMERIS_TYPE":0,"CLASSIFICATION_TYPE":"U","NORAD_CAT_ID":54145,"ELEMENT_SET_NO":999,"REV_AT_EPOCH":14543,"BSTAR":-7.4488e-6,"MEAN_MOTION_DOT":1.0e-7,"MEAN_MOTION_DDOT":0},{"OBJECT_NAME":"ONEWEB-0531","OBJECT_ID":"2022-138AK","EPOCH":"2025-10-22T03:05:38.330304","MEAN_MOTION":13.20771391,"ECCENTRICITY":0.0002491,"INCLINATION":87.9202,"RA_OF_ASC_NODE":321.9122,"ARG_OF_PERICENTER":77.3437,"MEAN_ANOMALY":282.7975,"EPHEMERIS_TYPE":0,"CLASSIFICATION_TYPE":"U","NORAD_CAT_ID":54146,"ELEMENT_SET_NO":999,"REV_AT_EPOCH":14788,"BSTAR":3.5403e-5,"MEAN_MOTION_DOT":2.7e-7,"MEAN_MOTION_DDOT":0},{"OBJECT_NAME":"ONEWEB-0535","OBJECT_ID":"2022-138AL","EPOCH":"2025-10-22T03:59:20.245056","MEAN_MOTION":13.19725198,"ECCENTRICITY":0.0001878,"INCLINATION":87.9257,"RA_OF_ASC_NODE":352.2969,"ARG_OF_PERICENTER":88.0039,"MEAN_ANOMALY":272.1309,"EPHEMERIS_TYPE":0,"CLASSIFICATION_TYPE":"U","NORAD_CAT_ID":54147,"ELEMENT_SET_NO":999,"REV_AT_EPOCH":14544,"BSTAR":0.00026397,"MEAN_MOTION_DOT":1.19e-6,"MEAN_MOTION_DDOT":0},{"OBJECT_NAME":"ONEWEB-0536","OBJECT_ID":"2022-138AM","EPOCH":"2025-10-22T02:47:26.365632","MEAN_MOTION":13.20769628,"ECCENTRICITY":0.0002735,"INCLINATION":87.9198,"RA_OF_ASC_NODE":321.9616,"ARG_OF_PERICENTER":79.356,"MEAN_ANOMALY":280.7881,"EPHEMERIS_TYPE":0,"CLASSIFICATION_TYPE":"U","NORAD_CAT_ID":54148,"ELEMENT_SET_NO":999,"REV_AT_EPOCH":14787,"BSTAR":0.00019033,"MEAN_MOTION_DOT":9.0e-7,"MEAN_MOTION_DDOT":0}]
