ONEWEB-0514             
1 54132U 22138V   25295.18357683  .00000071  00000+0  14546-3 0  9995
2 54132  87.9255 352.3114 0001861  95.0886 265.0460 13.19724507145433
ONEWEB-0515             
1 54133U 22138W   25295.16678944  .00000074  00000+0  15007-3 0  9996
2 54133  87.9210 321.8898 0002680  84.6217 275.5222 13.20771206147880
ONEWEB-0516             
1 54134U 22138X   25295.15830403  .00000029  00000+0  39740-4 0  9997
2 54134  87.9243 352.3413 0001928 100.9039 259.2311 13.19725320145438
ONEWEB-0517             
1 54135U 22138Y   25295.13776461  .00000119  00000+0  26375-3 0  9998
2 54135  87.9263 352.3164 0001607  95.0405 265.0911 13.19723940145436
ONEWEB-0518             
1 54136U 22138Z   25295.15672366  .00000067  00000+0  13618-3 0  9998
2 54136  87.9245 352.3436 0001846 104.0355 256.0983 13.19724824145430
ONEWEB-0519             
1 54137U 22138AA  25295.18199453  .00000089  00000+0  18898-3 0  9992
2 54137  87.9262 352.2993 0001644  97.4229 262.7091 13.19724291145441
ONEWEB-0520             
1 54138U 22138AB  25295.14092933  .00000059  00000+0  11605-3 0  9990
2 54138  87.9263 352.3114 0001911 108.4686 251.6655 13.19724323145423
ONEWEB-0521             
1 54139U 22138AC  25295.17410446  .00000068  00000+0  13776-3 0  9998
2 54139  87.9260 352.2903 0001665  93.3666 266.7657 13.19725295145374
ONEWEB-0522             
1 54140U 22138AD  25295.15357450  .00000061  00000+0  12107-3 0  9993
2 54140  87.9260 352.2955 0001851 104.8705 255.2633 13.19726345145411
ONEWEB-0523             
1 54141U 22138AE  25295.15415580  .00000005  00000+0 -18422-4 0  9999
2 54141  87.9201 321.9152 0002231  73.2796 286.8582 13.20769662147888
ONEWEB-0524             
1 54142U 22138AF  25295.06734514 -.00000870  00000+0 -21729-2 0  9994
2 54142  87.9202 321.9340 0002851  90.5829 269.5631 13.20775866147871
ONEWEB-0525             
1 54143U 22138AG  25295.17252187  .00000133  00000+0  29894-3 0  9990
2 54143  87.9262 352.3139 0001866 108.9642 251.1693 13.19725356145436
ONEWEB-0526             
1 54144U 22138AH  25295.20569318  .00000114  00000+0  25333-3 0  9995
2 54144  87.9261 352.2936 0001926 101.4916 258.6433 13.19724365145410
ONEWEB-0529             
1 54145U 22138AJ  25295.20884836  .00000010  00000+0 -74488-5 0  9994
2 54145  87.9246 352.3281 0001936 106.1839 253.9507 13.19724192145435
ONEWEB-0531             
1 54146U 22138AK  25295.12891586  .00000027  00000+0  35403-4 0  9996
2 54146  87.9202 321.9122 0002491  77.3437 282.7975 13.20771391147889
ONEWEB-0535             
1 54147U 22138AL  25295.16620654  .00000119  00000+0  26397-3 0  9990
2 54147  87.9257 352.2969 0001878  88.0039 272.1309 13.19725198145447
ONEWEB-0536             
1 54148U 22138AM  25295.11627738  .00000090  00000+0  19033-3 0  9993
2 54148  87.9198 321.9616 0002735  79.3560 280.7881 13.20769628147876
